STARLINK-32625          
1 62154U 24224R   26068.27842535  .00036351  00000+0  13231-2 0  9999
2 62154  42.9968 160.7214 0001114 290.1455  69.9277 15.27602483 72302
TEVEL2-1                
1 63217U 25052H   26068.64782323  .00020683  00000+0  70600-3 0  9994
2 63217  97.3991 324.7682 0004767 104.8919 255.2849 15.30341923 54855
