[{"OBJECT_NAME":"STARLINK-32625","OBJECT_ID":"2024-224R","EPOCH":"2026-03-09T06:40:55.950240","MEAN_MOTION":15.27602483,"ECCENTRICITY":0.00011143,"INCLINATION":42.9968,"RA_OF_ASC_NODE":160.7214,"ARG_OF_PERICENTER":290.1455,"MEAN_ANOMALY":69.9277,"EPHEMERIS_TYPE":0,"CLASSIFICATION_TYPE":"U","NORAD_CAT_ID":62154,"ELEMENT_SET_NO":999,"REV_AT_EPOCH":7230,"BSTAR":0.0013230736,"MEAN_MOTION_DOT":0.00036351,"MEAN_MOTION_DDOT":0},{"OBJECT_NAME":"TEVEL2-1","OBJECT_ID":"2025-052H","EPOCH":"2026-03-09T15:32:51.927072","MEAN_MOTION":15.30341923,"ECCENTRICITY":0.0004767,"INCLINATION":97.3991,"RA_OF_ASC_NODE":324.7682,"ARG_OF_PERICENTER":104.8919,"MEAN_ANOMALY":255.2849,"EPHEMERIS_TYPE":0,"CLASSIFICATION_TYPE":"U","NORAD_CAT_ID":63217,"ELEMENT_SET_NO":999,"REV_AT_EPOCH":5485,"BSTAR":0.000706,"MEAN_MOTION_DOT":0.00020683,"MEAN_MOTION_DDOT":0}]
